{
    "links": {
        "self": "http://www.neowsapp.com/rest/v1/neo/3647569?api_key=iIulBulltgU6a56xZRHN4H3l9WmuAYTsLGpBGhQ2"
    },
    "id": "3647569",
    "neo_reference_id": "3647569",
    "name": "(2013 RY29)",
    "designation": "2013 RY29",
    "nasa_jpl_url": "http://ssd.jpl.nasa.gov/sbdb.cgi?sstr=3647569",
    "absolute_magnitude_h": 26.2,
    "estimated_diameter": {
        "kilometers": {
            "estimated_diameter_min": 0.0152951935,
            "estimated_diameter_max": 0.0342010925
        },
        "meters": {
            "estimated_diameter_min": 15.2951935344,
            "estimated_diameter_max": 34.201092472
        },
        "miles": {
            "estimated_diameter_min": 0.0095039897,
            "estimated_diameter_max": 0.021251567
        },
        "feet": {
            "estimated_diameter_min": 50.1810827555,
            "estimated_diameter_max": 112.2083122258
        }
    },
    "is_potentially_hazardous_asteroid": false,
    "close_approach_data": [
        {
            "close_approach_date": "2013-09-01",
            "close_approach_date_full": "2013-Sep-01 03:42",
            "epoch_date_close_approach": 1378006920000,
            "relative_velocity": {
                "kilometers_per_second": "10.2358362926",
                "kilometers_per_hour": "36849.0106535047",
                "miles_per_hour": "22896.5422030069"
            },
            "miss_distance": {
                "astronomical": "0.0109632153",
                "lunar": "4.2646907517",
                "kilometers": "1640073.657231411",
                "miles": "1019094.5145630318"
            },
            "orbiting_body": "Earth"
        }
    ],
    "orbital_data": {
        "orbit_id": "5",
        "orbit_determination_date": "2019-07-17 06:09:58",
        "first_observation_date": "2013-09-03",
        "last_observation_date": "2013-09-06",
        "data_arc_in_days": 3,
        "observations_used": 40,
        "orbit_uncertainty": "7",
        "minimum_orbit_intersection": ".0104867",
        "jupiter_tisserand_invariant": "3.862",
        "epoch_osculation": "2459000.5",
        "eccentricity": ".4556178993990915",
        "semi_major_axis": "1.837362099454102",
        "inclination": "13.09312046256415",
        "ascending_node_longitude": "339.7872574833004",
        "orbital_period": "909.6840024032999",
        "perihelion_distance": "1.000227039265319",
        "perihelion_argument": "339.5995725014735",
        "aphelion_distance": "2.674497159642885",
        "perihelion_time": "2459252.727829427985",
        "mean_anomaly": "260.1829004861203",
        "mean_motion": ".3957418169923992",
        "equinox": "J2000",
        "orbit_class": {
            "orbit_class_type": "APO",
            "orbit_class_description": "Near-Earth asteroid orbits which cross the Earth’s orbit similar to that of 1862 Apollo",
            "orbit_class_range": "a (semi-major axis) > 1.0 AU; q (perihelion) < 1.017 AU"
        }
    },
    "is_sentry_object": false
}